{
  "type": "FeatureCollection",
  "features": [
    {
      "type": "Feature",
      "properties": {
        "norad_id": 66669,
        "name": "TRANSPORTER-15D",
        "group": "last-30-days",
        "lat": -13.254212897527234,
        "lon": -111.27507555988008,
        "alt_km": 420.15794748013286,
        "timestamp": "2025-12-24T20:42:19.744597+00:00",
        "meta_object_name": "TRANSPORTER-15D",
        "meta_object_id": "2025-276D",
        "meta_epoch": "2025-12-21T02:39:18.210816",
        "meta_mean_motion": 15.34134881,
        "meta_eccentricity": 0.00748198,
        "meta_inclination": 97.4314,
        "meta_ra_of_asc_node": 66.7079,
        "meta_arg_of_pericenter": 232.3102,
        "meta_mean_anomaly": 127.1341,
        "meta_ephemeris_type": 0,
        "meta_classification_type": "U",
        "meta_norad_cat_id": 66669,
        "meta_element_set_no": 999,
        "meta_rev_at_epoch": 339,
        "meta_bstar": 0.0027830351,
        "meta_mean_motion_dot": 0.00101698,
        "meta_mean_motion_ddot": 0,
        "tle_line1": "1 66669U 25276D   25355.11062744  .00101698  00000+0  27830-2 0  9996",
        "tle_line2": "2 66669  97.4314  66.7079 0074819 232.3102 127.1341 15.34134881  3392"
      },
      "geometry": {
        "type": "Point",
        "coordinates": [
          -111.27507555988008,
          -13.254212897527234
        ]
      }
    },
    {
      "type": "Feature",
      "properties": {
        "norad_id": 66670,
        "name": "HUNITY",
        "group": "last-30-days",
        "lat": -54.583971352391124,
        "lon": -120.2197689607846,
        "alt_km": 532.6374169285764,
        "timestamp": "2025-12-24T20:42:19.744609+00:00",
        "meta_object_name": "HUNITY",
        "meta_object_id": "2025-276E",
        "meta_epoch": "2025-12-23T13:32:41.599104",
        "meta_mean_motion": 15.14778724,
        "meta_eccentricity": 0.00045159,
        "meta_inclination": 97.4308,
        "meta_ra_of_asc_node": 69.0882,
        "meta_arg_of_pericenter": 49.7951,
        "meta_mean_anomaly": 310.3676,
        "meta_ephemeris_type": 0,
        "meta_classification_type": "U",
        "meta_norad_cat_id": 66670,
        "meta_element_set_no": 999,
        "meta_rev_at_epoch": 376,
        "meta_bstar": -0.0059587969,
        "meta_mean_motion_dot": -0.00108931,
        "meta_mean_motion_ddot": 0,
        "tle_line1": "1 66670U 25276E   25357.56437036 -.00108931  00000+0 -59588-2 0  9993",
        "tle_line2": "2 66670  97.4308  69.0882 0004515  49.7951 310.3676 15.14778724  3769"
      },
      "geometry": {
        "type": "Point",
        "coordinates": [
          -120.2197689607846,
          -54.583971352391124
        ]
      }
    },
    {
      "type": "Feature",
      "properties": {
        "norad_id": 66671,
        "name": "TRANSPORTER-15F",
        "group": "last-30-days",
        "lat": -81.06536267954682,
        "lon": -165.84158452186463,
        "alt_km": 518.4388002656633,
        "timestamp": "2025-12-24T20:42:19.744620+00:00",
        "meta_object_name": "TRANSPORTER-15F",
        "meta_object_id": "2025-276F",
        "meta_epoch": "2025-12-24T05:17:39.362208",
        "meta_mean_motion": 15.17145624,
        "meta_eccentricity": 0.0005185,
        "meta_inclination": 97.4417,
        "meta_ra_of_asc_node": 69.7704,
        "meta_arg_of_pericenter": 246.4648,
        "meta_mean_anomaly": 113.6041,
        "meta_ephemeris_type": 0,
        "meta_classification_type": "U",
        "meta_norad_cat_id": 66671,
        "meta_element_set_no": 999,
        "meta_rev_at_epoch": 386,
        "meta_bstar": 0.00072887344,
        "meta_mean_motion_dot": 0.00014417,
        "meta_mean_motion_ddot": 0,
        "tle_line1": "1 66671U 25276F   25358.22059447  .00014417  00000+0  72887-3 0  9995",
        "tle_line2": "2 66671  97.4417  69.7704 0005185 246.4648 113.6041 15.17145624  3865"
      },
      "geometry": {
        "type": "Point",
        "coordinates": [
          -165.84158452186463,
          -81.06536267954682
        ]
      }
    },
    {
      "type": "Feature",
      "properties": {
        "norad_id": 66672,
        "name": "TRANSPORTER-15G",
        "group": "last-30-days",
        "lat": -54.58073163582472,
        "lon": -120.20681639470857,
        "alt_km": 519.263650907481,
        "timestamp": "2025-12-24T20:42:19.744630+00:00",
        "meta_object_name": "TRANSPORTER-15G",
        "meta_object_id": "2025-276G",
        "meta_epoch": "2025-12-24T02:15:12.077856",
        "meta_mean_motion": 15.16640453,
        "meta_eccentricity": 0.00054885,
        "meta_inclination": 97.439,
        "meta_ra_of_asc_node": 69.6259,
        "meta_arg_of_pericenter": 244.535,
        "meta_mean_anomaly": 115.5316,
        "meta_ephemeris_type": 0,
        "meta_classification_type": "U",
        "meta_norad_cat_id": 66672,
        "meta_element_set_no": 999,
        "meta_rev_at_epoch": 384,
        "meta_bstar": 0.00049752614,
        "meta_mean_motion_dot": 9.673e-05,
        "meta_mean_motion_ddot": 0,
        "tle_line1": "1 66672U 25276G   25358.09388979  .00009673  00000+0  49753-3 0  9990",
        "tle_line2": "2 66672  97.4390  69.6259 0005488 244.5350 115.5316 15.16640453  3848"
      },
      "geometry": {
        "type": "Point",
        "coordinates": [
          -120.20681639470857,
          -54.58073163582472
        ]
      }
    },
    {
      "type": "Feature",
      "properties": {
        "norad_id": 66673,
        "name": "TRANSPORTER-15H",
        "group": "last-30-days",
        "lat": -77.52726100319757,
        "lon": -145.80921093516596,
        "alt_km": 517.5262768491857,
        "timestamp": "2025-12-24T20:42:19.744642+00:00",
        "meta_object_name": "TRANSPORTER-15H",
        "meta_object_id": "2025-276H",
        "meta_epoch": "2025-12-24T05:19:01.435296",
        "meta_mean_motion": 15.17192698,
        "meta_eccentricity": 0.00058973,
        "meta_inclination": 97.4358,
        "meta_ra_of_asc_node": 69.7501,
        "meta_arg_of_pericenter": 263.31,
        "meta_mean_anomaly": 96.7462,
        "meta_ephemeris_type": 0,
        "meta_classification_type": "U",
        "meta_norad_cat_id": 66673,
        "meta_element_set_no": 999,
        "meta_rev_at_epoch": 386,
        "meta_bstar": 0.0011480745,
        "meta_mean_motion_dot": 0.00022806,
        "meta_mean_motion_ddot": 0,
        "tle_line1": "1 66673U 25276H   25358.22154439  .00022806  00000+0  11481-2 0  9997",
        "tle_line2": "2 66673  97.4358  69.7501 0005897 263.3100  96.7462 15.17192698  3868"
      },
      "geometry": {
        "type": "Point",
        "coordinates": [
          -145.80921093516596,
          -77.52726100319757
        ]
      }
    },
    {
      "type": "Feature",
      "properties": {
        "norad_id": 66674,
        "name": "TRANSPORTER-15J",
        "group": "last-30-days",
        "lat": -22.124113863453797,
        "lon": -112.68532630432313,
        "alt_km": 538.5865289130252,
        "timestamp": "2025-12-24T20:42:19.744654+00:00",
        "meta_object_name": "TRANSPORTER-15J",
        "meta_object_id": "2025-276J",
        "meta_epoch": "2025-12-21T10:53:16.478880",
        "meta_mean_motion": 15.15191397,
        "meta_eccentricity": 0.00065005,
        "meta_inclination": 97.4372,
        "meta_ra_of_asc_node": 67.0325,
        "meta_arg_of_pericenter": 333.1103,
        "meta_mean_anomaly": 26.9792,
        "meta_ephemeris_type": 0,
        "meta_classification_type": "U",
        "meta_norad_cat_id": 66674,
        "meta_element_set_no": 999,
        "meta_rev_at_epoch": 344,
        "meta_bstar": -0.028180021,
        "meta_mean_motion_dot": -0.00494676,
        "meta_mean_motion_ddot": 0,
        "tle_line1": "1 66674U 25276J   25355.45366295 -.00494676  00000+0 -28180-1 0  9998",
        "tle_line2": "2 66674  97.4372  67.0325 0006500 333.1103  26.9792 15.15191397  3449"
      },
      "geometry": {
        "type": "Point",
        "coordinates": [
          -112.68532630432313,
          -22.124113863453797
        ]
      }
    },
    {
      "type": "Feature",
      "properties": {
        "norad_id": 66675,
        "name": "TRANSPORTER-15K",
        "group": "last-30-days",
        "lat": -76.6171715993751,
        "lon": -142.9196725442374,
        "alt_km": 518.5714369007483,
        "timestamp": "2025-12-24T20:42:19.744664+00:00",
        "meta_object_name": "TRANSPORTER-15K",
        "meta_object_id": "2025-276K",
        "meta_epoch": "2025-12-24T03:44:14.687520",
        "meta_mean_motion": 15.17037385,
        "meta_eccentricity": 0.00051452,
        "meta_inclination": 97.4382,
        "meta_ra_of_asc_node": 69.6935,
        "meta_arg_of_pericenter": 253.7464,
        "meta_mean_anomaly": 106.3204,
        "meta_ephemeris_type": 0,
        "meta_classification_type": "U",
        "meta_norad_cat_id": 66675,
        "meta_element_set_no": 999,
        "meta_rev_at_epoch": 385,
        "meta_bstar": 0.00068788014,
        "meta_mean_motion_dot": 0.00013559,
        "meta_mean_motion_ddot": 0,
        "tle_line1": "1 66675U 25276K   25358.15572555  .00013559  00000+0  68788-3 0  9992",
        "tle_line2": "2 66675  97.4382  69.6935 0005145 253.7464 106.3204 15.17037385  3851"
      },
      "geometry": {
        "type": "Point",
        "coordinates": [
          -142.9196725442374,
          -76.6171715993751
        ]
      }
    }
  ]
}